OBJECT_NAME,OBJECT_ID,EPOCH,MEAN_MOTION,ECCENTRICITY,INCLINATION,RA_OF_ASC_NODE,ARG_OF_PERICENTER,MEAN_ANOMALY,EPHEMERIS_TYPE,CLASSIFICATION_TYPE,NORAD_CAT_ID,ELEMENT_SET_NO,REV_AT_EPOCH,BSTAR,MEAN_MOTION_DOT,MEAN_MOTION_DDOT
STARLINK-30437,2023-156J,2026-06-27T17:08:14.036640,15.30202435,.00012034,53.1606,287.1428,85.8926,274.2212,0,U,58036,999,15311,-.24857649E-4,-.1095E-4,0
STARLINK-30533,2023-156K,2026-06-27T20:39:25.979904,15.34401862,.00010044,53.1590,15.5056,80.6051,279.5065,0,U,58037,999,15191,.71997496E-3,.24029E-3,0
STARLINK-30560,2023-156L,2026-06-27T15:57:33.712128,15.30205194,.00011075,53.1608,284.7070,103.7718,256.3406,0,U,58038,999,15314,.75154339E-4,.1868E-4,0
STARLINK-30555,2023-156N,2026-06-27T19:47:55.324032,15.34391563,.00010447,53.1614,15.3014,86.3547,273.7575,0,U,58040,999,15191,-.2799378E-5,-.471E-5,0
STARLINK-30542,2023-156P,2026-06-27T16:50:02.744160,15.30194354,.00011337,53.1610,287.2391,66.8137,293.2983,0,U,58041,999,15315,-.53706958E-4,-.1949E-4,0
STARLINK-30563,2023-156Q,2026-06-27T16:47:41.030016,15.30204313,.00014369,53.1601,284.7698,102.5387,257.5775,0,U,58042,999,15319,.1412864E-3,.3828E-4,0
STARLINK-30564,2023-156R,2026-06-27T22:00:01.999584,15.30212724,.0001172,53.1605,286.4932,88.0772,76.3531,0,U,58043,999,586,-.7199274E-3,-.21628E-3,0
STARLINK-30547,2023-156S,2026-06-27T20:12:08.394048,15.34402922,.00007938,53.1585,15.3585,77.3020,282.8071,0,U,58044,999,15191,.45158438E-4,.115E-4,0
STARLINK-30550,2023-156T,2026-06-27T19:29:31.926912,15.34391837,.0001319,53.1590,209.2975,85.1691,274.9462,0,U,58045,999,15424,.51967152E-4,.1379E-4,0
STARLINK-30548,2023-156U,2026-06-27T22:46:25.351392,15.34389224,.00010409,53.1613,14.6551,79.2812,280.8308,0,U,58046,999,15188,.67331605E-4,.1899E-4,0
STARLINK-30529,2023-156V,2026-06-27T20:15:58.174848,15.30097873,.00019624,53.1611,16.8189,119.1412,240.9785,0,U,58047,999,15184,-.95190829E-3,-.28358E-3,0
STARLINK-30554,2023-156W,2026-06-27T22:23:21.313248,15.30203648,.00012841,53.1602,15.9703,80.7282,279.3864,0,U,58048,999,15186,.13051604E-3,.3509E-4,0
STARLINK-30568,2023-158A,2026-06-27T22:06:05.251104,15.27579678,.00013184,43.0026,124.9280,258.8057,101.2646,0,U,58051,999,15041,.43543921E-4,.936E-5,0
STARLINK-30575,2023-158B,2026-06-27T03:10:40.465920,15.27569357,.00011023,43.0019,129.3302,226.1750,133.9011,0,U,58052,999,15030,.3030869E-5,-.179E-5,0
STARLINK-30577,2023-158C,2026-06-27T13:23:30.668640,15.27562004,.0000722,43.0024,126.4914,265.6209,94.4560,0,U,58053,999,15037,-.46510155E-4,-.1541E-4,0
STARLINK-30566,2023-158D,2026-06-27T13:12:23.583744,15.27611892,.00034522,42.9992,126.4529,260.6255,99.4207,0,U,58054,999,15037,.28368225E-3,.756E-4,0
STARLINK-30544,2023-158E,2026-06-27T20:46:31.732320,15.27575480,.0001274,43.0004,124.5168,267.0231,93.0475,0,U,58055,999,15042,.32817167E-4,.641E-5,0
STARLINK-30553,2023-158F,2026-06-27T13:16:05.503008,15.27581487,.00013122,43.0000,126.4678,278.8978,81.1725,0,U,58056,999,15037,-.25936688E-4,-.976E-5,0
STARLINK-30541,2023-158G,2026-06-27T20:57:37.840032,15.27582081,.00010981,43.0013,124.5763,265.4760,94.5966,0,U,58057,999,15042,-.34998907E-4,-.1225E-4,0
STARLINK-30573,2023-158H,2026-06-27T13:21:40.036896,15.27573586,.00014534,43.0019,126.4963,267.7688,92.2998,0,U,58058,999,15037,-.5179892E-5,-.405E-5,0
STARLINK-30582,2023-158J,2026-06-27T22:15:08.081568,15.27573895,.00014651,43.0017,124.1209,274.1189,85.9495,0,U,58059,999,15043,.58523467E-4,.1348E-4,0
STARLINK-30558,2023-158K,2026-06-27T13:58:39.550944,15.27551599,.00021585,43.0043,126.6785,265.8280,94.2325,0,U,58060,999,15037,.24040973E-3,.6353E-4,0
STARLINK-30579,2023-158L,2026-06-27T18:52:55.471296,15.27572168,.0002112,42.9911,99.4685,133.8909,226.2117,0,U,58061,999,15070,.11506566E-3,.2905E-4,0
STARLINK-30588,2023-158M,2026-06-27T21:17:59.209440,15.27563927,.00011313,43.0031,124.6787,221.7325,138.3441,0,U,58062,999,15042,.10370298E-3,.2591E-4,0
STARLINK-30585,2023-158N,2026-06-27T21:29:04.858368,15.27585806,.00012436,43.0024,124.7415,267.2625,92.8084,0,U,58063,999,15042,-.11356866E-4,-.575E-5,0
STARLINK-30587,2023-158P,2026-06-27T20:52:05.016000,15.27574055,.00011238,42.9993,124.5445,284.2843,75.7884,0,U,58064,999,15042,.26109363E-4,.456E-5,0
STARLINK-30576,2023-158Q,2026-06-27T21:19:50.188512,15.27581077,.00004338,42.9979,124.6974,206.3014,153.7816,0,U,58065,999,15042,.19376693E-3,.5074E-4,0
STARLINK-30571,2023-158R,2026-06-27T20:09:44.476704,15.27523259,.0001998,43.0048,125.1828,259.5979,100.4648,0,U,58066,999,15041,.50404814E-3,.1361E-3,0
STARLINK-30567,2023-158S,2026-06-27T20:20:49.404192,15.27579899,.00004047,43.0003,125.2223,217.3942,142.6882,0,U,58067,999,15041,.7770578E-5,-.48E-6,0
STARLINK-30569,2023-158T,2026-06-27T19:48:40.268448,15.27575995,.00014422,43.0004,128.4795,261.7284,98.3404,0,U,58068,999,15037,.24121663E-3,.6381E-4,0
STARLINK-30480,2023-158U,2026-06-27T19:35:57.671808,15.27558869,.00013242,43.0025,342.8934,265.6397,94.4304,0,U,58069,999,15208,.13221623E-3,.3376E-4,0
STARLINK-30532,2023-158V,2026-06-27T21:23:31.838208,15.27577048,.0001171,43.0027,124.7079,275.7363,84.3355,0,U,58070,999,15042,.58468404E-4,.1347E-4,0
STARLINK-30506,2023-158X,2026-06-27T21:38:19.773600,15.27567790,.00010559,43.0032,124.7768,272.8032,87.2698,0,U,58072,999,15042,-.58281087E-4,-.1865E-4,0
YUNHAI-1 04,2023-159A,2026-06-27T21:45:48.888576,14.32736754,.00019089,98.4969,204.4467,124.3965,235.7400,0,U,58073,999,14133,.11882438E-3,.28E-5,0
STARLINK-30604,2023-160A,2026-06-27T23:16:11.476992,15.27567574,.00021683,43.0066,174.9272,275.9013,84.1592,0,U,58075,999,14981,-.8527907E-5,-.497E-5,0
STARLINK-30500,2023-160B,2026-06-27T17:18:03.944736,15.27573143,.00015433,43.0038,176.4899,284.3509,75.7171,0,U,58076,999,14977,-.3255437E-5,-.352E-5,0
STARLINK-30613,2023-160C,2026-06-27T23:25:26.602176,15.27570864,.00013566,43.0030,174.9746,269.9107,90.1590,0,U,58077,999,14982,.13598475E-4,.112E-5,0
STARLINK-30597,2023-160D,2026-06-27T16:48:26.996544,15.27574042,.00012498,43.0015,176.3280,268.5416,91.5293,0,U,58078,999,14977,.55125414E-4,.1255E-4,0
STARLINK-30598,2023-160E,2026-06-27T17:14:21.628896,15.27574725,.00020209,43.0047,176.4800,283.0418,77.0208,0,U,58079,999,14977,-.1685474E-5,-.309E-5,0
STARLINK-30603,2023-160F,2026-06-27T17:19:54.758784,15.27576267,.00012762,43.0037,176.5069,283.0244,77.0465,0,U,58080,999,14977,.34485304E-4,.687E-5,0
STARLINK-30602,2023-160G,2026-06-27T16:45:45.854496,15.25976299,.00027225,42.9898,179.7491,244.3533,115.7037,0,U,58081,999,14973,-.37928631E-2,-.98368E-3,0
STARLINK-30610,2023-160H,2026-06-27T16:22:45.749280,15.27581036,.00011278,42.9996,177.0610,253.0475,107.0253,0,U,58082,999,14976,.23494839E-4,.385E-5,0
STARLINK-30551,2023-160J,2026-06-27T17:13:37.840512,15.27585477,.00016916,43.0029,179.8736,258.9277,101.1384,0,U,58083,999,14973,.73299916E-4,.1756E-4,0
STARLINK-30586,2023-160K,2026-06-27T23:35:49.457184,15.27576882,.00016025,43.0031,178.4232,288.8250,71.2427,0,U,58084,999,14977,.10559445E-4,.28E-6,0
STARLINK-30609,2023-160L,2026-06-27T17:24:44.806176,15.27581002,.00016592,43.0030,179.9358,281.4045,78.6620,0,U,58085,999,14973,.4003706E-4,.84E-5,0
STARLINK-30583,2023-160M,2026-06-27T17:30:18.096768,15.27579224,.00017487,43.0046,179.9623,282.7652,77.3004,0,U,58086,999,14973,.28823657E-4,.531E-5,0
STARLINK-30557,2023-160N,2026-06-27T17:35:51.275904,15.27574517,.00012818,43.0021,179.9897,281.4821,78.5886,0,U,58087,999,14973,.862071E-5,-.25E-6,0
STARLINK-30591,2023-160P,2026-06-27T16:44:44.947680,15.27576934,.00013824,42.9987,176.3155,280.3645,79.7051,0,U,58088,999,14977,.8748351E-4,.2146E-4,0
STARLINK-30584,2023-160Q,2026-06-27T23:21:44.467776,15.27567541,.00012805,43.0035,174.9453,262.7698,97.3009,0,U,58089,999,14981,-.8486844E-5,-.496E-5,0
STARLINK-30590,2023-160R,2026-06-27T11:26:36.851424,15.27583704,.00013756,43.0009,181.4858,291.2854,68.7851,0,U,58090,999,14969,.40679081E-4,.858E-5,0
STARLINK-30608,2023-160S,2026-06-27T11:10:41.571552,15.27573058,.00018289,43.0031,178.0133,252.5365,107.5287,0,U,58091,999,14973,.25889437E-4,.45E-5,0
STARLINK-30615,2023-160T,2026-06-27T16:39:24.640416,15.27573278,.00013251,43.0001,177.1398,267.4930,92.5770,0,U,58092,999,14976,.65491546E-4,.154E-4,0
STARLINK-30578,2023-160U,2026-06-27T23:19:53.242464,15.27578663,.00013166,43.0032,174.9285,269.6221,90.4480,0,U,58093,999,14981,-.19335692E-4,-.794E-5,0
STARLINK-30574,2023-160V,2026-06-27T23:14:21.384384,15.27566360,.0001133,43.0037,174.9026,282.5773,77.4952,0,U,58094,999,14981,.90923434E-4,.224E-4,0
STARLINK-30570,2023-160W,2026-06-27T17:12:30.122784,15.27578261,.00016662,43.0043,176.4606,272.2113,87.8548,0,U,58095,999,14977,.723847E-4,.173E-4,0
STARLINK-30581,2023-160X,2026-06-27T06:30:04.515840,15.27573729,.0001793,43.0053,179.1229,277.9561,82.1087,0,U,58096,999,14970,-.1626E-4,-.71E-5,0
STARLINK-30594,2023-161A,2026-06-27T18:43:36.911712,15.34393644,.00011141,53.1613,13.7037,86.1326,273.9804,0,U,58097,999,15128,-.27856946E-4,-.1317E-4,0
STARLINK-30614,2023-161B,2026-06-27T20:35:34.520352,15.34397976,.00010914,53.1614,13.4760,82.3534,277.7593,0,U,58098,999,15129,.11467385E-3,.35E-4,0
STARLINK-30607,2023-161C,2026-06-27T18:07:46.058880,15.30207728,.00008906,53.1608,4.2578,110.9599,249.1497,0,U,58099,999,15140,-.41796679E-4,-.1597E-4,0
STARLINK-30600,2023-161D,2026-06-27T22:45:36.389376,15.34390829,.00008466,53.1616,12.6104,84.7903,275.3196,0,U,58100,999,15131,.13309746E-3,.4122E-4,0
STARLINK-30605,2023-161E,2026-06-27T22:00:01.999584,15.34365952,.00019479,53.1609,13.3409,65.3910,189.0603,0,U,58101,999,586,.12480508E-2,.41982E-3,0
STARLINK-30592,2023-161F,2026-06-27T22:51:39.867264,15.34388009,.00009514,53.1610,12.6458,65.2162,294.8939,0,U,58102,999,15131,.90333887E-4,.2676E-4,0
STARLINK-30589,2023-161G,2026-06-27T21:58:15.267072,15.30208144,.00012159,53.1605,13.6345,88.8144,271.2996,0,U,58103,999,15129,.14866806E-3,.4047E-4,0
STARLINK-30617,2023-161H,2026-06-27T19:32:03.064704,15.34391084,.00006436,53.1615,13.7153,58.3095,301.7970,0,U,58104,999,15128,.43270801E-4,.1086E-4,0
